OSCAR 7 (AO-7)          
1 07530U 74089B   26115.87753196 -.00000031  00000+0  96314-4 0  9995
2 07530 101.9931 128.5744 0011961 229.7726 201.1613 12.53697167353962
PHASE 3B (AO-10)        
1 14129U 83058B   26115.43941507  .00000058  00000+0  00000+0 0  9990
2 14129  25.8952 228.3572 6029562 101.1190 328.2592  2.05871318294407
UOSAT 2 (UO-11)         
1 14781U 84021B   26115.86533003  .00001408  00000+0  14934-3 0  9995
2 14781  97.8018  82.0428 0007771   9.0173 351.1183 14.90654729249332
LUSAT (LO-19)           
1 20442U 90005G   26115.78541409  .00000110  00000+0  56077-4 0  9999
2 20442  98.8886 136.1385 0011612   5.6944 354.4370 14.34106019894889
EYESAT A (AO-27)        
1 22825U 93061C   26115.76645024  .00000069  00000+0  43302-4 0  9997
2 22825  98.6906 183.1918 0007304 251.4174 108.6215 14.30927492699501
ITAMSAT (IO-26)         
1 22826U 93061D   26115.76145740  .00000075  00000+0  45331-4 0  9999
2 22826  98.6853 183.0989 0007975 232.8581 127.1874 14.31352931699811
RADIO ROSTO (RS15)      
1 23439U 94085A   26115.78942384 -.00000047  00000+0 -11777-3 0  9995
2 23439  64.8201  27.9572 0154446  13.4060 347.0898 11.27583717289992
JAS-2 (FO-29)           
1 24278U 96046B   26115.59447711 -.00000004  00000+0  34217-4 0  9996
2 24278  98.5303 331.6515 0349018 232.8208 124.0594 13.53271563466059
TECHSAT 1B (GO-32)      
1 25397U 98043D   26115.59268000  .00000055  00000+0  43792-4 0  9993
2 25397  99.0061 107.0293 0001809  44.1616 315.9706 14.24417549443840
ISS (ZARYA)             
1 25544U 98067A   26115.61933537  .00010271  00000+0  19457-3 0  9991
2 25544  51.6320 200.2872 0006949 349.7097  10.3748 15.48952974563604
PCSAT (NO-44)           
1 26931U 01043C   26115.84473576  .00000123  00000+0  76957-4 0  9991
2 26931  67.0528  19.6518 0006513 263.9909  96.0451 14.31935056282952
SAUDISAT 1C (SO-50)     
1 27607U 02058C   26115.82574772  .00001145  00000+0  15231-3 0  9999
2 27607  64.5516 290.9753 0075587 271.9918  87.2533 14.82928015256691
CUTE-1 (CO-55)          
1 27844U 03031E   26114.99932729  .00000245  00000+0  12496-3 0  9991
2 27844  98.6757 124.2245 0009205 347.5450  12.5500 14.24301171184104
CUBESAT XI-IV (CO-57)   
1 27848U 03031J   26115.45318900  .00000236  00000+0  12291-3 0  9999
2 27848  98.6791 124.4281 0009461   4.9021 355.2248 14.23591430183877
MOZHAETS 4 (RS22)       
1 27939U 03042A   26115.51830815  .00000592  00000+0  99623-4 0  9993
2 27939  98.3474 298.3926 0012542  77.1796   7.0239 14.73368412207792
CUBESAT XI-V            
1 28895U 05043F   26115.40187728  .00001332  00000+0  21784-3 0  9999
2 28895  98.2923 269.9383 0014311  18.3896 341.7825 14.72487588 93985
